start=new Date('2023-01-18T00:00:00.000Z').valueOf();
sats=[{"EPHEMERIS_TYPE":"0","MEAN_ELEMENT_THEORY":"SGP4","INCLINATION":"53.2143","COUNTRY_CODE":"US","TIME_SYSTEM":"UTC","CENTER_NAME":"EARTH","APOAPSIS":"540.533","SEMIMAJOR_AXIS":"6917.892","RA_OF_ASC_NODE":"252.2868","TLE_LINE2":"2 52691  53.2143 252.2868 0001122 105.7952 254.3164 15.08836117 38029","GP_ID":"223382885","MEAN_ANOMALY":"254.3164","MEAN_MOTION":"15.08836117","LAUNCH_DATE":"2022-05-18","CLASSIFICATION_TYPE":"U","PERIAPSIS":"538.981","OBJECT_TYPE":"PAYLOAD","FILE":"3753286","EPOCH":"2023-01-17T21:30:31.112352","DECAY_DATE":null,"OBJECT_NAME":"STARLINK-3945","ELEMENT_SET_NO":"999","MEAN_MOTION_DDOT":"0.0000000000000","RCS_SIZE":"LARGE","OBJECT_ID":"2022-053AM","NORAD_CAT_ID":"52691","ARG_OF_PERICENTER":"105.7952","REV_AT_EPOCH":"3802","BSTAR":"0.00029194000000","TLE_LINE1":"1 52691U 22053AM  23017.89619343  .00004361  00000-0  29194-3 0  9993","REF_FRAME":"TEME","PERIOD":"95.438","MEAN_MOTION_DOT":"0.00004361","ECCENTRICITY":"0.00011220","SITE":"AFETR"},{"SITE":"AFETR","ECCENTRICITY":"0.00013420","MEAN_MOTION_DOT":"0.00005071","PERIOD":"95.438","REF_FRAME":"TEME","BSTAR":"0.00033652000000","TLE_LINE1":"1 52692U 22053AN  23017.90723577  .00005071  00000-0  33652-3 0  9994","REV_AT_EPOCH":"3802","ARG_OF_PERICENTER":"92.6241","NORAD_CAT_ID":"52692","OBJECT_ID":"2022-053AN","RCS_SIZE":"LARGE","MEAN_MOTION_DDOT":"0.0000000000000","ELEMENT_SET_NO":"999","OBJECT_NAME":"STARLINK-3993","FILE":"3753286","DECAY_DATE":null,"EPOCH":"2023-01-17T21:46:25.170528","OBJECT_TYPE":"PAYLOAD","CLASSIFICATION_TYPE":"U","PERIAPSIS":"538.841","LAUNCH_DATE":"2022-05-18","MEAN_MOTION":"15.08832056","MEAN_ANOMALY":"267.4905","TLE_LINE2":"2 52692  53.2143 252.2360 0001342  92.6241 267.4905 15.08832056 38022","GP_ID":"223381639","RA_OF_ASC_NODE":"252.2360","APOAPSIS":"540.698","CENTER_NAME":"EARTH","SEMIMAJOR_AXIS":"6917.905","TIME_SYSTEM":"UTC","COUNTRY_CODE":"US","INCLINATION":"53.2143","MEAN_ELEMENT_THEORY":"SGP4","EPHEMERIS_TYPE":"0"},{"RA_OF_ASC_NODE":"252.3204","TLE_LINE2":"2 52693  53.2146 252.3204 0001608  69.9969 290.1196 15.08835809 37622","GP_ID":"223354700","MEAN_ANOMALY":"290.1196","COUNTRY_CODE":"US","TIME_SYSTEM":"UTC","APOAPSIS":"540.871","SEMIMAJOR_AXIS":"6917.893","CENTER_NAME":"EARTH","MEAN_ELEMENT_THEORY":"SGP4","INCLINATION":"53.2146","EPHEMERIS_TYPE":"0","CLASSIFICATION_TYPE":"U","PERIAPSIS":"538.646","OBJECT_TYPE":"PAYLOAD","EPOCH":"2023-01-17T21:19:55.230816","FILE":"3753113","DECAY_DATE":null,"MEAN_MOTION":"15.08835809","LAUNCH_DATE":"2022-05-18","ARG_OF_PERICENTER":"69.9969","NORAD_CAT_ID":"52693","MEAN_MOTION_DDOT":"0.0000000000000","RCS_SIZE":"LARGE","OBJECT_ID":"2022-053AP","OBJECT_NAME":"STARLINK-3946","ELEMENT_SET_NO":"999","MEAN_MOTION_DOT":"0.00005899","ECCENTRICITY":"0.00016080","SITE":"AFETR","PERIOD":"95.438","REF_FRAME":"TEME","REV_AT_EPOCH":"3762","BSTAR":"0.00038844000000","TLE_LINE1":"1 52693U 22053AP  23017.88883369  .00005899  00000-0  38844-3 0  9994"},{"LAUNCH_DATE":"2022-05-18","MEAN_MOTION":"15.08867758","FILE":"3753286","EPOCH":"2023-01-17T21:41:04.758720","DECAY_DATE":null,"PERIAPSIS":"538.711","CLASSIFICATION_TYPE":"U","OBJECT_TYPE":"PAYLOAD","EPHEMERIS_TYPE":"0","MEAN_ELEMENT_THEORY":"SGP4","INCLINATION":"53.2156","TIME_SYSTEM":"UTC","APOAPSIS":"540.610","CENTER_NAME":"EARTH","SEMIMAJOR_AXIS":"6917.796","COUNTRY_CODE":"US","MEAN_ANOMALY":"278.1213","RA_OF_ASC_NODE":"252.2465","GP_ID":"223382640","TLE_LINE2":"2 52694  53.2156 252.2465 0001373  81.9935 278.1213 15.08867758 38027","REV_AT_EPOCH":"3802","TLE_LINE1":"1 52694U 22053AQ  23017.90352730  .00004676  00000-0  31146-3 0  9991","BSTAR":"0.00031146000000","REF_FRAME":"TEME","PERIOD":"95.436","SITE":"AFETR","ECCENTRICITY":"0.00013730","MEAN_MOTION_DOT":"0.00004676","ELEMENT_SET_NO":"999","OBJECT_NAME":"STARLINK-4072","RCS_SIZE":"LARGE","OBJECT_ID":"2022-053AQ","MEAN_MOTION_DDOT":"0.0000000000000","NORAD_CAT_ID":"52694","ARG_OF_PERICENTER":"81.9935"},{"ARG_OF_PERICENTER":"72.9737","NORAD_CAT_ID":"52695","MEAN_MOTION_DDOT":"0.0000000000000","RCS_SIZE":"LARGE","OBJECT_ID":"2022-053AR","OBJECT_NAME":"STARLINK-4041","ELEMENT_SET_NO":"999","MEAN_MOTION_DOT":"-0.00001510","ECCENTRICITY":"0.00014570","SITE":"AFETR","PERIOD":"95.438","REF_FRAME":"TEME","BSTAR":"-0.00007677600000","TLE_LINE1":"1 52695U 22053AR  23017.89485096 -.00001510  00000-0 -76776-4 0  9997","REV_AT_EPOCH":"3755","TLE_LINE2":"2 52695  53.2149 257.2964 0001457  72.9737 287.1414 15.08838586 37559","GP_ID":"223354704","RA_OF_ASC_NODE":"257.2964","MEAN_ANOMALY":"287.1414","COUNTRY_CODE":"US","APOAPSIS":"540.758","SEMIMAJOR_AXIS":"6917.885","CENTER_NAME":"EARTH","TIME_SYSTEM":"UTC","INCLINATION":"53.2149","MEAN_ELEMENT_THEORY":"SGP4","EPHEMERIS_TYPE":"0","OBJECT_TYPE":"PAYLOAD","PERIAPSIS":"538.742","CLASSIFICATION_TYPE":"U","DECAY_DATE":null,"FILE":"3753113","EPOCH":"2023-01-17T21:28:35.122944","MEAN_MOTION":"15.08838586","LAUNCH_DATE":"2022-05-18"},{"MEAN_ANOMALY":"276.3376","RA_OF_ASC_NODE":"252.3032","GP_ID":"223382140","TLE_LINE2":"2 52696  53.2153 252.3032 0001703  83.7810 276.3376 15.08834755 38027","TIME_SYSTEM":"UTC","SEMIMAJOR_AXIS":"6917.896","APOAPSIS":"540.940","CENTER_NAME":"EARTH","COUNTRY_CODE":"US","MEAN_ELEMENT_THEORY":"SGP4","INCLINATION":"53.2153","EPHEMERIS_TYPE":"0","FILE":"3753286","EPOCH":"2023-01-17T21:25:13.183680","DECAY_DATE":null,"CLASSIFICATION_TYPE":"U","PERIAPSIS":"538.583","OBJECT_TYPE":"PAYLOAD","LAUNCH_DATE":"2022-05-18","MEAN_MOTION":"15.08834755","ARG_OF_PERICENTER":"83.7810","NORAD_CAT_ID":"52696","RCS_SIZE":"LARGE","OBJECT_ID":"2022-053AS","MEAN_MOTION_DDOT":"0.0000000000000","ELEMENT_SET_NO":"999","OBJECT_NAME":"STARLINK-4025","SITE":"AFETR","ECCENTRICITY":"0.00017030","MEAN_MOTION_DOT":"0.00003022","PERIOD":"95.438","REF_FRAME":"TEME","REV_AT_EPOCH":"3802","TLE_LINE1":"1 52696U 22053AS  23017.89251370  .00003022  00000-0  20791-3 0  9997","BSTAR":"0.00020791000000"},{"REF_FRAME":"TEME","TLE_LINE1":"1 52697U 22053AT  23017.37228794  .00017541  00000-0  11176-2 0  9992","BSTAR":"0.00111760000000","REV_AT_EPOCH":"3788","MEAN_MOTION_DOT":"0.00017541","ECCENTRICITY":"0.00011240","SITE":"AFETR","PERIOD":"95.438","MEAN_MOTION_DDOT":"0.0000000000000","RCS_SIZE":"LARGE","OBJECT_ID":"2022-053AT","OBJECT_NAME":"STARLINK-4018","ELEMENT_SET_NO":"999","ARG_OF_PERICENTER":"93.6582","NORAD_CAT_ID":"52697","OBJECT_TYPE":"PAYLOAD","CLASSIFICATION_TYPE":"U","PERIAPSIS":"538.984","FILE":"3753023","EPOCH":"2023-01-17T08:56:05.678016","DECAY_DATE":null,"MEAN_MOTION":"15.08834573","LAUNCH_DATE":"2022-05-18","INCLINATION":"53.2138","MEAN_ELEMENT_THEORY":"SGP4","EPHEMERIS_TYPE":"0","TLE_LINE2":"2 52697  53.2138 259.6334 0001124  93.6582 266.4539 15.08834573 37881","GP_ID":"223323283","RA_OF_ASC_NODE":"259.6334","MEAN_ANOMALY":"266.4539","COUNTRY_CODE":"US","APOAPSIS":"540.540","SEMIMAJOR_AXIS":"6917.897","CENTER_NAME":"EARTH","TIME_SYSTEM":"UTC"},{"MEAN_MOTION":"15.08840802","LAUNCH_DATE":"2022-05-18","PERIAPSIS":"538.427","CLASSIFICATION_TYPE":"U","OBJECT_TYPE":"PAYLOAD","FILE":"3753286","DECAY_DATE":null,"EPOCH":"2023-01-17T21:55:04.983168","COUNTRY_CODE":"US","TIME_SYSTEM":"UTC","CENTER_NAME":"EARTH","APOAPSIS":"541.059","SEMIMAJOR_AXIS":"6917.878","RA_OF_ASC_NODE":"257.2081","TLE_LINE2":"2 52698  53.2147 257.2081 0001902  61.5768 298.5416 15.08840802 37959","GP_ID":"223383141","MEAN_ANOMALY":"298.5416","EPHEMERIS_TYPE":"0","MEAN_ELEMENT_THEORY":"SGP4","INCLINATION":"53.2147","PERIOD":"95.438","MEAN_MOTION_DOT":"0.00012266","SITE":"AFETR","ECCENTRICITY":"0.00019020","REV_AT_EPOCH":"3795","TLE_LINE1":"1 52698U 22053AU  23017.91325212  .00012266  00000-0  78740-3 0  9996","BSTAR":"0.00078740000000","REF_FRAME":"TEME","NORAD_CAT_ID":"52698","ARG_OF_PERICENTER":"61.5768","OBJECT_NAME":"STARLINK-4030","ELEMENT_SET_NO":"999","MEAN_MOTION_DDOT":"0.0000000000000","OBJECT_ID":"2022-053AU","RCS_SIZE":"MEDIUM"},{"REV_AT_EPOCH":"3768","TLE_LINE1":"1 52699U 22053AV  23017.88841589  .00010354  00000-0  66778-3 0  9997","BSTAR":"0.00066778000000","REF_FRAME":"TEME","PERIOD":"95.438","MEAN_MOTION_DOT":"0.00010354","SITE":"AFETR","ECCENTRICITY":"0.00014300","OBJECT_NAME":"STARLINK-3987","ELEMENT_SET_NO":"999","MEAN_MOTION_DDOT":"0.0000000000000","RCS_SIZE":"LARGE","OBJECT_ID":"2022-053AV","NORAD_CAT_ID":"52699","ARG_OF_PERICENTER":"79.0780","MEAN_MOTION":"15.08834447","LAUNCH_DATE":"2022-05-18","PERIAPSIS":"538.773","CLASSIFICATION_TYPE":"U","OBJECT_TYPE":"PAYLOAD","FILE":"3753111","EPOCH":"2023-01-17T21:19:19.132896","DECAY_DATE":null,"EPHEMERIS_TYPE":"0","MEAN_ELEMENT_THEORY":"SGP4","INCLINATION":"53.2151","COUNTRY_CODE":"US","TIME_SYSTEM":"UTC","CENTER_NAME":"EARTH","APOAPSIS":"540.752","SEMIMAJOR_AXIS":"6917.897","RA_OF_ASC_NODE":"247.3052","TLE_LINE2":"2 52699  53.2151 247.3052 0001430  79.0780 281.0373 15.08834447 37684","GP_ID":"223354705","MEAN_ANOMALY":"281.0373"},{"REF_FRAME":"TEME","REV_AT_EPOCH":"3796","BSTAR":"0.00035332000000","TLE_LINE1":"1 52700U 22053AW  23017.90589173  .00005339  00000-0  35332-3 0  9990","SITE":"AFETR","ECCENTRICITY":"0.00013740","MEAN_MOTION_DOT":"0.00005339","PERIOD":"95.438","OBJECT_ID":"2022-053AW","RCS_SIZE":"LARGE","MEAN_MOTION_DDOT":"0.0000000000000","ELEMENT_SET_NO":"999","OBJECT_NAME":"STARLINK-4034","ARG_OF_PERICENTER":"76.9627","NORAD_CAT_ID":"52700","FILE":"3753286","DECAY_DATE":null,"EPOCH":"2023-01-17T21:44:29.045472","PERIAPSIS":"538.811","CLASSIFICATION_TYPE":"U","OBJECT_TYPE":"PAYLOAD","LAUNCH_DATE":"2022-05-18","MEAN_MOTION":"15.08834782","MEAN_ELEMENT_THEORY":"SGP4","INCLINATION":"53.2163","EPHEMERIS_TYPE":"0","MEAN_ANOMALY":"283.1518","RA_OF_ASC_NODE":"257.2355","TLE_LINE2":"2 52700  53.2163 257.2355 0001374  76.9627 283.1518 15.08834782 37966","GP_ID":"223381640","TIME_SYSTEM":"UTC","SEMIMAJOR_AXIS":"6917.896","APOAPSIS":"540.712","CENTER_NAME":"EARTH","COUNTRY_CODE":"US"}];
